ORBCOMM-X [-]           
1 21576U 91050C   23363.77916345  .00000491  00000+0  16198-3 0  9996
2 21576  98.4133  68.6009 0003853  20.9886 339.1461 14.42309013704917
ORBCOMM FM01 [-]        
1 23545U 95017A   23364.26274432  .00006007  00000+0  84453-3 0  9998
2 23545  69.9694 314.3325 0003447   4.1273 355.9903 14.77828911533520
ORBCOMM FM02 [-]        
1 23546U 95017B   23364.32371672  .00006048  00000+0  85787-3 0  9996
2 23546  69.9711 333.3756 0005793  10.7271 349.3999 14.77441123533132
ORBCOMM FM08 [-]        
1 25112U 97084A   23363.18027920  .00001923  00000+0  62704-3 0  9991
2 25112  45.0159  52.3229 0005257  56.4288 303.7064 14.41760422363918
ORBCOMM FM10 [-]        
1 25113U 97084B   23364.49673896  .00001706  00000+0  56191-3 0  9998
2 25113  45.0171  47.8076 0003715  16.4334 343.6636 14.41700820364260
ORBCOMM FM11 [+]        
1 25114U 97084C   23363.18812700  .00001967  00000+0  64259-3 0  9996
2 25114  45.0155  54.0140 0004493  14.0584 346.0391 14.41584232364037
ORBCOMM FM12 [-]        
1 25115U 97084D   23364.11550687  .00001764  00000+0  58110-3 0  9998
2 25115  45.0162  49.2509 0003543  15.3916 344.7041 14.41564174364208
ORBCOMM FM09 [-]        
1 25116U 97084E   23363.50006524  .00001890  00000+0  61974-3 0  9999
2 25116  45.0165  52.8350 0005208   0.3060 359.7792 14.41532848364112
